     2.100          NAVIGATION                              RINEX VERSION / TYPE
fic2rin                                 04/18/2011 00:16:33 PGM / RUN BY / DATE
                                                            END OF HEADER
12 11  4 17 16  0  0.0 -.110641121864D-04  .284217094304D-11  .000000000000D+00
     .104000000000D+03  .512812500000D+02  .440375486264D-08 -.175753564864D+00
     .261701643467D-05  .373100931756D-02  .795535743237D-05  .515376294327D+04
     .576000000000D+05  .279396772385D-07 -.231844305822D+01 -.484287738800D-07
     .974606613009D+00  .234500000000D+03 -.230749589887D+00 -.805747848346D-08
     .605025201728D-09  .100000000000D+01  .163200000000D+04  .000000000000D+00
     .240000000000D+01  .000000000000D+00 -.121071934700D-07  .104000000000D+03
     .504060000000D+05  .400000000000D+01
13 11  4 17 16  0  0.0  .274745747447D-03 -.147792889038D-11  .000000000000D+00
     .660000000000D+02 -.108531250000D+03  .426410618857D-08  .233882155388D+01
    -.555813312531D-05  .471987680066D-02  .272877514362D-05  .515361214256D+04
     .576000000000D+05  .633299350739D-07  .193511092980D+01 -.298023223877D-07
     .989765785615D+00  .337343750000D+03  .181197078941D+01 -.824641492485D-08
    -.534665128092D-09  .100000000000D+01  .163200000000D+04  .000000000000D+00
     .240000000000D+01  .000000000000D+00 -.111758708954D-07  .660000000000D+02
     .504060000000D+05  .400000000000D+01
14 11  4 17 16  0  0.0  .144477467984D-03  .227373675443D-11  .000000000000D+00
     .720000000000D+02 -.976562500000D+02  .431232248268D-08  .233613400513D+01
    -.520609319210D-05  .563439750113D-02  .299513339996D-05  .515365132904D+04
     .576000000000D+05 -.316649675369D-07  .191115813029D+01 -.121071934700D-06
     .982815384286D+00  .332031250000D+03 -.209957680017D+01 -.817819779762D-08
    -.445732852277D-09  .100000000000D+01  .163200000000D+04  .000000000000D+00
     .240000000000D+01  .000000000000D+00 -.884756445885D-08  .720000000000D+02
     .504060000000D+05  .400000000000D+01
15 11  4 17 16  0  0.0 -.134577043355D-03  .284217094304D-11  .000000000000D+00
     .980000000000D+02 -.794687500000D+02  .526736226392D-08  .192323732930D+01
    -.393204391003D-05  .340383802541D-02  .150874257088D-05  .515359747314D+04
     .576000000000D+05  .633299350739D-07  .183659644347D+01  .707805156708D-07
     .950008834858D+00  .345750000000D+03 -.514189460112D-01 -.874929301460D-08
    -.358229207399D-09  .100000000000D+01  .163200000000D+04  .000000000000D+00
     .240000000000D+01  .000000000000D+00 -.977888703346D-08  .980000000000D+02
     .504060000000D+05  .400000000000D+01
16 11  4 17 16  0  0.0 -.165805686265D-03 -.272848410532D-11  .000000000000D+00
     .100000000000D+02  .619687500000D+02  .438768276460D-08 -.253358401879D+01
     .325031578541D-05  .635769788641D-02  .796094536781D-05  .515378041267D+04
     .576000000000D+05 -.335276126862D-07 -.230065380907D+01  .298023223877D-07
     .975624754253D+00  .237843750000D+03 -.141676880702D+00 -.798104672835D-08
     .731459039634D-09  .100000000000D+01  .163200000000D+04  .000000000000D+00
     .240000000000D+01  .000000000000D+00 -.977888703346D-08  .100000000000D+02
     .504060000000D+05  .400000000000D+01
17 11  4 17 16  0  0.0  .184385105968D-03 -.113686837722D-12  .000000000000D+00
     .860000000000D+02 -.472187500000D+02  .491270463387D-08  .267185432505D+01
    -.237487256527D-05  .626516621560D-02  .555440783501D-05  .515373483276D+04
     .576000000000D+05  .130385160446D-07 -.125759525054D+01 -.111758708954D-06
     .960735801634D+00  .271531250000D+03 -.240490970319D+01 -.823855745470D-08
    -.383587406527D-09  .100000000000D+01  .163200000000D+04  .000000000000D+00
     .240000000000D+01  .000000000000D+00 -.102445483208D-07  .860000000000D+02
     .504060000000D+05  .400000000000D+01
18 11  4 17 16  0  0.0  .132347457111D-03  .204636307899D-11  .000000000000D+00
     .160000000000D+02  .129437500000D+03  .533093634061D-08 -.223691609365D+01
     .664964318275D-05  .121378191980D-01  .437721610069D-05  .515359572029D+04
     .576000000000D+05  .176951289177D-06  .824149720778D+00 -.223517417908D-07
     .933594690663D+00  .280062500000D+03 -.225939958652D+01 -.853749847822D-08
     .527164815673D-09  .100000000000D+01  .163200000000D+04  .000000000000D+00
     .240000000000D+01  .000000000000D+00 -.107102096081D-07  .160000000000D+02
     .504060000000D+05  .400000000000D+01
19 11  4 17 16  0  0.0 -.131403561682D-03 -.386535248253D-11  .000000000000D+00
     .580000000000D+02 -.480625000000D+02  .501949479639D-08  .201435312939D+01
    -.249035656452D-05  .721902668010D-02  .602751970291D-05  .515363830948D+04
     .576000000000D+05  .000000000000D+00 -.120342125674D+01  .186264514923D-06
     .958289590482D+00  .261000000000D+03 -.479383040228D-02 -.836284834620D-08
    -.539665336370D-09  .100000000000D+01  .163200000000D+04  .000000000000D+00
     .240000000000D+01  .000000000000D+00 -.149011611938D-07  .580000000000D+02
     .504060000000D+05  .400000000000D+01
20 11  4 17 16  0  0.0  .489535741508D-04  .113686837722D-12  .000000000000D+00
     .700000000000D+01  .151437500000D+03  .541129683080D-08 -.185040446201D+01
     .787898898125D-05  .466391758528D-02  .536069273949D-05  .515368668175D+04
     .576000000000D+05  .122934579849D-06  .770216451613D+00  .372529029846D-08
     .933773538250D+00  .263343750000D+03  .128580793730D+01 -.869286209260D-08
     .521093134192D-09  .100000000000D+01  .163200000000D+04  .000000000000D+00
     .240000000000D+01  .000000000000D+00 -.791624188423D-08  .700000000000D+01
     .504060000000D+05  .400000000000D+01
21 11  4 17 16  0  0.0 -.138126779348D-03 -.261479726760D-11  .000000000000D+00
     .900000000000D+02  .312500000000D+02  .489948979770D-08 -.974504966535D+00
     .181980431080D-05  .176619340200D-01  .122860074043D-04  .515377717781D+04
     .576000000000D+05  .344589352608D-06 -.229889581310D+00  .294297933578D-06
     .932287513380D+00  .126031250000D+03 -.237924710208D+01 -.823141430002D-08
    -.229652423088D-09  .100000000000D+01  .163200000000D+04  .000000000000D+00
     .240000000000D+01  .000000000000D+00 -.116415321827D-07  .900000000000D+02
     .504060000000D+05  .400000000000D+01
22 11  4 17 16  0  0.0  .150077510625D-03 -.682121026330D-12  .000000000000D+00
     .460000000000D+02  .130062500000D+03  .542665461338D-08 -.302290361993D+01
     .667758285999D-05  .550181732979D-02  .430457293987D-05  .515370960808D+04
     .576000000000D+05  .100582838058D-06  .828361758901D+00 -.223517417908D-07
     .931286137177D+00  .281468750000D+03 -.197143651696D+01 -.863214527779D-08
     .417874549009D-09  .100000000000D+01  .163200000000D+04  .000000000000D+00
     .240000000000D+01  .000000000000D+00 -.172294676304D-07  .460000000000D+02
     .504060000000D+05  .400000000000D+01
23 11  4 17 16  0  0.0  .312677118927D-03 -.261479726760D-11  .000000000000D+00
     .900000000000D+02 -.935000000000D+02  .496163524345D-08  .159709978111D+01
    -.461563467979D-05  .714096776210D-02  .208057463169D-05  .515356614304D+04
     .576000000000D+05  .502914190292D-07  .186636872671D+01  .130385160446D-06
     .964484147390D+00  .341968750000D+03  .313189813686D+01 -.868107588737D-08
    -.517164399116D-09  .100000000000D+01  .163200000000D+04  .000000000000D+00
     .240000000000D+01  .000000000000D+00 -.200234353542D-07  .900000000000D+02
     .504060000000D+05  .400000000000D+01
24 11  4 17 16  0  0.0  .382425729185D-03  .318323145621D-11  .000000000000D+00
     .510000000000D+02  .469375000000D+02  .449125850752D-08  .846993701533D+00
     .238977372646D-05  .605550943874D-02  .140238553286D-04  .515373091507D+04
     .576000000000D+05  .147148966789D-06 -.185823998875D+00  .186264514923D-08
     .948907222435D+00  .102937500000D+03 -.293440347494D+00 -.796318884164D-08
    -.285726187357D-09  .100000000000D+01  .163200000000D+04  .000000000000D+00
     .240000000000D+01  .000000000000D+00 -.139698386192D-08  .510000000000D+02
     .504060000000D+05  .400000000000D+01
25 11  4 17 16  0  0.0 -.115483999252D-05  .113686837722D-12  .000000000000D+00
     .490000000000D+02  .573750000000D+02  .456483300076D-08 -.181106461845D+01
     .300072133541D-05  .642867642455D-03  .833161175251D-05  .515366559410D+04
     .576000000000D+05 -.260770320892D-07 -.234781197106D+01 -.428408384323D-07
     .963406455140D+00  .221812500000D+03  .817985156617D+00 -.808855120634D-08
     .590738892360D-09  .100000000000D+01  .163200000000D+04  .000000000000D+00
     .240000000000D+01  .000000000000D+00  .465661287308D-08  .490000000000D+02
     .504060000000D+05  .400000000000D+01
26 11  4 17 16  0  0.0 -.520516186953D-05 -.105728759081D-10  .000000000000D+00
     .700000000000D+02 -.885937500000D+02  .445054252582D-08  .124978664880D+01
    -.484660267830D-05  .205042223679D-01  .348873436451D-05  .515364392662D+04
     .576000000000D+05 -.346451997757D-06  .193050113888D+01 -.577419996262D-07
     .987402905203D+00  .335218750000D+03  .113767917825D+01 -.849892544293D-08
    -.522164607395D-09  .100000000000D+01  .163200000000D+04  .000000000000D+00
     .340000000000D+01  .000000000000D+00 -.651925802231D-08  .700000000000D+02
     .504060000000D+05  .400000000000D+01
27 11  4 17 16  0  0.0  .256410799921D-03  .363797880709D-11  .000000000000D+00
     .189000000000D+03 -.112593750000D+03  .372729811407D-08  .224473864578D+01
    -.560656189919D-05  .216125246370D-01  .119991600513D-04  .515368984604D+04
     .576000000000D+05  .316649675369D-06  .285600710971D+01  .931322574615D-08
     .981106298055D+00  .151468750000D+03 -.126451408356D+01 -.729458956322D-08
    -.287154818294D-09  .100000000000D+01  .163200000000D+04  .000000000000D+00
     .240000000000D+01  .000000000000D+00 -.419095158577D-08  .189000000000D+03
     .504060000000D+05  .400000000000D+01
